1 45068U 20006AA  23001.60216126 -.00000790  00000-0 -34172-4 0  9990
2 45068  53.0534  87.7927 0001506  68.8072 291.3078 15.06393976161432
1 45068U 20006AA  23001.66851247  .00000485  00000-0  51436-4 0  9996
2 45068  53.0544  87.4956 0001494  70.4996 289.6154 15.06392719161442
1 45068U 20006AA  23002.59735661 -.00000038  00000-0  16320-4 0  9998
2 45068  53.0546  83.3253 0001530  68.5494 291.5658 15.06408324161587
1 45068U 20006AA  23003.59256598  .00001552  00000-0  12310-3 0  9991
2 45068  53.0541  78.8576 0001539  71.5434 288.5723 15.06394708161732
1 45068U 20006AA  23004.45506827  .00001327  00000-0  10796-3 0  9996
2 45068  53.0542  74.9856 0001525  68.6726 291.4425 15.06405209161862
1 45068U 20006AA  23005.45026270  .00002446  00000-0  18300-3 0  9998
2 45068  53.0551  70.5184 0001421  63.4793 296.6341 15.06409649162014
1 45068U 20006AA  23005.58295486  .00002053  00000-0  15663-3 0  9992
2 45068  53.0555  69.9222 0001419  66.8267 293.2871 15.06411554162034
1 45068U 20006AA  23006.57816842 -.00000862  00000-0 -38950-4 0  9990
2 45068  53.0532  65.4549 0001567  64.8629 295.2523 15.06393381162185
1 45068U 20006AA  23007.17528434 -.00000209  00000-0  48505-5 0  9996
2 45068  53.0544  62.7740 0001611  68.8203 291.2958 15.06405841162276
1 45068U 20006AA  23007.83875922 -.00001442  00000-0 -77927-4 0  9996
2 45068  53.0549  59.7959 0001519  63.5697 296.5448 15.06399236162378
1 45068U 20006AA  23008.17049400  .00001169  00000-0  97384-4 0  9991
2 45068  53.0547  58.3066 0001519  60.5584 299.5556 15.06394029162426
1 45068U 20006AA  23008.83396679  .00001049  00000-0  89326-4 0  9991
2 45068  53.0546  55.3281 0001536  59.8695 300.2446 15.06391327162521
1 45068U 20006AA  23009.09935406  .00000156  00000-0  29399-4 0  9999
2 45068  53.0548  54.1367 0001523  59.9479 300.1661 15.06394536162569
1 45068U 20006AA  23010.35994312  .00000724  00000-0  67514-4 0  9993
2 45068  53.0539  48.4771 0001694  60.5305 299.5852 15.06397320162757
1 45068U 20006AA  23011.48783828  .00000459  00000-0  49682-4 0  9997
2 45068  53.0542  43.4135 0001553  58.7214 301.3927 15.06402195162923
1 45068U 20006AA  23012.35034672  .00001631  00000-0  12840-3 0  9998
2 45068  53.0539  39.5427 0001618  57.6793 302.4352 15.06397748163057
1 45068U 20006AA  23013.47824570 -.00000689  00000-0 -27337-4 0  9998
2 45068  53.0544  34.4819 0001574  58.5029 301.6114 15.06402880163225
1 45068U 20006AA  23013.87633163 -.00000506  00000-0 -15045-4 0  9999
2 45068  53.0546  32.6923 0001595  57.5674 302.5469 15.06395004163289
1 45068U 20006AA  23015.40230858  .00000646  00000-0  62241-4 0  9997
2 45068  53.0542  25.8412 0001648  62.8443 297.2713 15.06400996163519
1 45068U 20006AA  23015.73404691 -.00000021  00000-0  17487-4 0  9991
2 45068  53.0541  24.3519 0001662  63.4517 296.6642 15.06396503163562
1 45068U 20006AA  23016.39750347  .00002617  00000-0  19450-3 0  9999
2 45068  53.0544  21.3727 0001713  60.4866 299.6294 15.06410327163662
1 45068U 20006AA  23016.72924171  .00003463  00000-0  25126-3 0  9991
2 45068  53.0537  19.8831 0001792  64.8925 295.2249 15.06405690163718
1 45068U 20006AA  23017.39270123  .00003446  00000-0  25004-3 0  9992
2 45068  53.0543  16.9046 0001905  72.6872 287.4325 15.06409529163819
1 45068U 20006AA  23017.72443109  .00003744  00000-0  27000-3 0  9994
2 45068  53.0541  15.4148 0001747  68.6977 291.4199 15.06416666163868
1 45068U 20006AA  23018.38789638  .00000974  00000-0  84245-4 0  9994
2 45068  53.0549  12.4364 0001725  73.2754 286.8424 15.06415135163964
1 45068U 20006AA  23019.38311496 -.00002644  00000-0 -15871-3 0  9994
2 45068  53.0546   7.9702 0001444  80.1913 279.9238 15.06393586164117
1 45068U 20006AA  23020.44467085 -.00000870  00000-0 -39517-4 0  9992
2 45068  53.0547   3.2048 0001471  85.8056 274.3101 15.06389202164275
1 45068U 20006AA  23025.28801045  .00000665  00000-0  63554-4 0  9995
2 45068  53.0547 341.4612 0001494  93.8376 266.2784 15.06399394165000
1 45068U 20006AA  23026.15052168  .00000969  00000-0  83921-4 0  9993
2 45068  53.0544 337.5897 0001540  92.2142 267.9023 15.06396808165139
1 45068U 20006AA  23027.21207616  .00000112  00000-0  26442-4 0  9996
2 45068  53.0551 332.8238 0001541  90.3390 269.7776 15.06393289165639
1 45068U 20006AA  23028.20727452  .00000910  00000-0  79968-4 0  9998
2 45068  53.0552 328.3564 0001494  93.0115 267.1045 15.06398687165441
1 45068U 20006AA  23028.87074468  .00000986  00000-0  85083-4 0  9991
2 45068  53.0545 325.3769 0001385 100.0336 260.0809 15.06394699165540
1 45068U 20006AA  23029.20247843 -.00000987  00000-0 -47386-4 0  9995
2 45068  53.0547 323.8884 0001371  94.3704 265.7442 15.06402539165595
1 45068U 20006AA  23030.19768282 -.00000026  00000-0  17129-4 0  9995
2 45068  53.0546 319.4210 0001425  96.0890 264.0261 15.06397359165744
1 45068U 20006AA  23030.92749419  .00000857  00000-0  76454-4 0  9994
2 45068  53.0547 316.1449 0001420  95.9302 264.1849 15.06398876165854
1 45068U 20006AA  23031.19288484  .00000357  00000-0  42835-4 0  9995
2 45068  53.0545 314.9538 0001393  93.9022 266.2126 15.06395723165896
1 45068U 20006AA  23032.18808712  .00000125  00000-0  27272-4 0  9998
2 45068  53.0546 310.4861 0001428  94.3861 265.7291 15.06397884166047
1 45068U 20006AA  23033.11694849  .00000043  00000-0  21796-4 0  9990
2 45068  53.0542 306.3162 0001521  95.4614 264.6549 15.06392047166188
1 45068U 20006AA  23034.11214996  .00000725  00000-0  67545-4 0  9991
2 45068  53.0545 301.8481 0001521  93.3508 266.7655 15.06394982166332
1 45068U 20006AA  23035.90351700 -.00000094  00000-0  12583-4 0  9996
2 45068  53.0539 293.8065 0001412  94.1620 265.9530 15.06395547166607
1 45068U 20006AA  23036.10255852 -.00000084  00000-0  13250-4 0  9991
2 45068  53.0539 292.9124 0001390  94.1035 266.0113 15.06395585166632
1 45068U 20006AA  23036.96506192  .00001028  00000-0  87887-4 0  9996
2 45068  53.0533 289.0410 0001374  93.4752 266.6394 15.06399743166762
1 45068U 20006AA  23037.09775422  .00001153  00000-0  96301-4 0  9995
2 45068  53.0532 288.4451 0001403  93.5372 266.5778 15.06401294166783
1 45068U 20006AA  23037.96026813  .00000385  00000-0  44764-4 0  9996
2 45068  53.0531 284.5723 0001432  97.3948 262.7204 15.06396298166918
1 45068U 20006AA  23038.09296239  .00000253  00000-0  35911-4 0  9990
2 45068  53.0533 283.9769 0001415  96.8276 263.2874 15.06396004166938
1 45068U 20006AA  23038.88912562 -.00000455  00000-0 -11655-4 0  9996
2 45068  53.0530 280.4023 0001368  96.9145 263.1999 15.06398113167057
1 45068U 20006AA  23038.95547331 -.00000610  00000-0 -22054-4 0  9990
2 45068  53.0531 280.1045 0001354  96.5505 263.5638 15.06397158167063
1 45068U 20006AA  23039.95067540  .00000666  00000-0  63587-4 0  9995
2 45068  53.0531 275.6372 0001243  95.1547 264.9584 15.06397339167216
1 45068U 20006AA  23040.08336806  .00000813  00000-0  73494-4 0  9997
2 45068  53.0531 275.0413 0001260  95.2416 264.8716 15.06398757167234
1 45068U 20006AA  23040.81318863  .00000685  00000-0  64912-4 0  9993
2 45068  53.0532 271.7648 0001238  92.2450 267.8681 15.06393867167341
1 45068U 20006AA  23041.07857579  .00000759  00000-0  69846-4 0  9997
2 45068  53.0532 270.5733 0001229  91.3768 268.7362 15.06395030167389
1 45068U 20006AA  23041.87473908  .00000158  00000-0  29515-4 0  9997
2 45068  53.0532 266.9990 0001226  91.5370 268.5760 15.06397498167505
1 45068U 20006AA  23042.40551236  .00000552  00000-0  55953-4 0  9991
2 45068  53.0529 264.6163 0001291  89.5450 270.5687 15.06398395167582
1 45068U 20006AA  23042.86992294  .00002824  00000-0  20830-3 0  9993
2 45068  53.0527 262.5317 0001326  92.8188 267.2953 15.06414641167652
1 45068U 20006AA  23043.40069588  .00001917  00000-0  14748-3 0  9998
2 45068  53.0518 260.1483 0001410  93.1741 266.9409 15.06412234167730
1 45068U 20006AA  23044.59497764 -.00003571  00000-0 -22105-3 0  9996
2 45068  53.0517 254.7874 0001357  81.1444 278.9698 15.06388416168254
1 45068U 20006AA  23045.59017495  .00003380  00000-0  24578-3 0  9998
2 45068  53.0520 250.3189 0001174  72.3700 287.7417 15.06383730168063
1 45068U 20006AA  23046.51902710  .00004967  00000-0  35206-3 0  9996
2 45068  53.0520 246.1493 0001315  63.7580 296.3544 15.06403315168206
1 45068U 20006AA  23046.85075640  .00006067  00000-0  42565-3 0  9995
2 45068  53.0508 244.6600 0001356  62.6161 297.4966 15.06418891168253
1 45068U 20006AA  23047.24883963  .00002502  00000-0  18674-3 0  9998
2 45068  53.0507 242.8729 0001430  65.7004 294.4134 15.06409998168316
1 45068U 20006AA  23047.64692187 -.00002857  00000-0 -17297-3 0  9993
2 45068  53.0500 241.0855 0001655  67.8287 292.2877 15.06399317168374
1 45068U 20006AA  23048.50942998 -.00001383  00000-0 -73985-4 0  9997
2 45068  53.0506 237.2136 0001576  70.0087 290.1072 15.06402338168502
1 45068U 20006AA  23048.84116219 -.00001452  00000-0 -78547-4 0  9999
2 45068  53.0517 235.7245 0001601 102.1927 257.9242 15.06407640168553
1 45068U 20006AA  23049.50462646  .00002133  00000-0  16203-3 0  9996
2 45068  53.0523 232.7454 0001273  72.9340 287.1788 15.06401120168655
1 45068U 20006AA  23050.23445258 -.00000054  00000-0  15287-4 0  9991
2 45068  53.0524 229.4688 0001252  72.4342 287.6784 15.06391543168762
1 45068U 20006AA  23051.49503557  .00000010  00000-0  19529-4 0  9991
2 45068  53.0525 223.8104 0001277  63.5597 296.5523 15.06401979168950
1 45068U 20006AA  23052.62293888  .00000542  00000-0  55294-4 0  9999
2 45068  53.0527 218.7457 0001380  68.4919 291.6217 15.06392821169124
1 45068U 20006AA  23052.75563068  .00000840  00000-0  75283-4 0  9994
2 45068  53.0527 218.1502 0001384  68.5397 291.5739 15.06395415169146
1 45068U 20006AA  23053.48545317 -.00000249  00000-0  21484-5 0  9991
2 45068  53.0526 214.8740 0001396  72.6210 287.4932 15.06388755169255
1 45068U 20006AA  23054.54699888  .00000506  00000-0  52863-4 0  9991
2 45068  53.0531 210.1082 0001399  77.7900 282.3246 15.06397665169414
1 45068U 20006AA  23054.74603676  .00000860  00000-0  76599-4 0  9998
2 45068  53.0529 209.2146 0001388  77.3388 282.7756 15.06400435169448
